[{"OBJECT_NAME":"STARLINK-5374","OBJECT_ID":"2023-046BE","EPOCH":"2026-03-09T22:00:01.999584","MEAN_MOTION":15.09222648,"ECCENTRICITY":8.207e-5,"INCLINATION":42.9999,"RA_OF_ASC_NODE":144.4517,"ARG_OF_PERICENTER":256.2412,"MEAN_ANOMALY":307.4218,"EPHEMERIS_TYPE":0,"CLASSIFICATION_TYPE":"U","NORAD_CAT_ID":56144,"ELEMENT_SET_NO":999,"REV_AT_EPOCH":567,"BSTAR":0.001655471,"MEAN_MOTION_DOT":0.00026669,"MEAN_MOTION_DDOT":0},{"OBJECT_NAME":"OBJECT M","OBJECT_ID":"2017-042M","EPOCH":"2026-03-09T22:38:39.337440","MEAN_MOTION":15.07991931,"ECCENTRICITY":0.0005117,"INCLINATION":97.4139,"RA_OF_ASC_NODE":234.2602,"ARG_OF_PERICENTER":83.1417,"MEAN_ANOMALY":277.0393,"EPHEMERIS_TYPE":0,"CLASSIFICATION_TYPE":"U","NORAD_CAT_ID":42836,"ELEMENT_SET_NO":999,"REV_AT_EPOCH":47205,"BSTAR":0.00047182615,"MEAN_MOTION_DOT":7.201e-5,"MEAN_MOTION_DDOT":0}]
